{
    "links": {
        "self": "http://www.neowsapp.com/rest/v1/neo/3648740?api_key=iIulBulltgU6a56xZRHN4H3l9WmuAYTsLGpBGhQ2"
    },
    "id": "3648740",
    "neo_reference_id": "3648740",
    "name": "(2013 TG)",
    "designation": "2013 TG",
    "nasa_jpl_url": "http://ssd.jpl.nasa.gov/sbdb.cgi?sstr=3648740",
    "absolute_magnitude_h": 24.8,
    "estimated_diameter": {
        "kilometers": {
            "estimated_diameter_min": 0.0291443905,
            "estimated_diameter_max": 0.0651688382
        },
        "meters": {
            "estimated_diameter_min": 29.1443904535,
            "estimated_diameter_max": 65.1688382168
        },
        "miles": {
            "estimated_diameter_min": 0.018109479,
            "estimated_diameter_max": 0.0404940262
        },
        "feet": {
            "estimated_diameter_min": 95.6180819754,
            "estimated_diameter_max": 213.8085311752
        }
    },
    "is_potentially_hazardous_asteroid": false,
    "close_approach_data": [
        {
            "close_approach_date": "2012-02-28",
            "close_approach_date_full": "2012-Feb-28 03:21",
            "epoch_date_close_approach": 1330399260000,
            "relative_velocity": {
                "kilometers_per_second": "16.5822265019",
                "kilometers_per_hour": "59696.0154069246",
                "miles_per_hour": "37092.7824621527"
            },
            "miss_distance": {
                "astronomical": "0.1737926618",
                "lunar": "67.6053454402",
                "kilometers": "25999012.026910366",
                "miles": "16155036.9545044108"
            },
            "orbiting_body": "Earth"
        },
        {
            "close_approach_date": "2013-09-12",
            "close_approach_date_full": "2013-Sep-12 06:41",
            "epoch_date_close_approach": 1378968060000,
            "relative_velocity": {
                "kilometers_per_second": "9.538050775",
                "kilometers_per_hour": "34336.9827900229",
                "miles_per_hour": "21335.6657786117"
            },
            "miss_distance": {
                "astronomical": "0.0665480255",
                "lunar": "25.8871819195",
                "kilometers": "9955442.867505685",
                "miles": "6186025.348061053"
            },
            "orbiting_body": "Earth"
        }
    ],
    "orbital_data": {
        "orbit_id": "8",
        "orbit_determination_date": "2017-04-06 08:44:27",
        "first_observation_date": "2013-10-01",
        "last_observation_date": "2013-10-09",
        "data_arc_in_days": 8,
        "observations_used": 28,
        "orbit_uncertainty": "8",
        "minimum_orbit_intersection": ".0156352",
        "jupiter_tisserand_invariant": "5.483",
        "epoch_osculation": "2456569.5",
        "eccentricity": ".3614385925742974",
        "semi_major_axis": "1.127226014411267",
        "inclination": "3.129895421491337",
        "ascending_node_longitude": "9.24045531285214",
        "orbital_period": "437.1343466389318",
        "perihelion_distance": ".7198030302493241",
        "perihelion_argument": "249.2859490741057",
        "aphelion_distance": "1.53464899857321",
        "perihelion_time": "2456482.990233862116",
        "mean_anomaly": "71.24472384541873",
        "mean_motion": ".8235454449369912",
        "equinox": "J2000",
        "orbit_class": {
            "orbit_class_type": "APO",
            "orbit_class_description": "Near-Earth asteroid orbits which cross the Earth’s orbit similar to that of 1862 Apollo",
            "orbit_class_range": "a (semi-major axis) > 1.0 AU; q (perihelion) < 1.017 AU"
        }
    },
    "is_sentry_object": false
}